CZ-2D R/B               
1 65853U 25222C   25299.94130397  .00002821  00000+0  22077-3 0  9996
2 65853  34.9022 219.7421 0056576 215.4886 144.2048 14.99320791  4189
STARLINK-35208          
1 65854U 25223A   25300.16668980  .00101491  00000+0  25198-2 0  9998
2 65854  53.1589 197.1386 0001254  95.1238 268.6053 15.39544889  5007
STARLINK-35200          
1 65855U 25223B   25300.14997552  .00080178  00000+0  14335-2 0  9996
2 65855  53.1591 197.0387 0000934  99.2468 260.8646 15.49337076  3723
STARLINK-35459          
1 65856U 25223C   25300.16668980 -.01595472  00000+0 -40440-1 0  9995
2 65856  53.1590 196.9914 0001037 114.4824 322.9520 15.42447590  5008
STARLINK-35489          
1 65857U 25223D   25300.14928839  .00082956  00000+0  14822-2 0  9997
2 65857  53.1590 197.0339 0000960 101.6174 258.4942 15.49340025  3722
STARLINK-35199          
1 65858U 25223E   25300.14897468 -.00071133  00000+0 -12908-2 0  9991
2 65858  53.1590 197.0319 0001230  64.1809 295.9327 15.49128155  3721
STARLINK-35408          
1 65859U 25223F   25300.16668980  .00086018  00000+0  21408-2 0  9990
2 65859  53.1587 197.0867 0001435  94.7523 294.7274 15.39555520  5005
STARLINK-35303          
1 65860U 25223G   25300.16668980 -.02001453  00000+0 -47382-1 0  9994
2 65860  53.1590 196.9544 0000885  90.9121   5.5249 15.44670895  5000
STARLINK-35258          
1 65861U 25223H   25300.14859943  .00093743  00000+0  16712-2 0  9997
2 65861  53.1586 197.0288 0000094  77.0565 283.0455 15.49345939  3725
STARLINK-35386          
1 65862U 25223J   25300.14722446  .00064921  00000+0  11633-2 0  9998
2 65862  53.1594 197.0193 0001050  99.5807 260.5321 15.49366441  3724
STARLINK-35469          
1 65863U 25223K   25300.16668980  .00097122  00000+0  24126-2 0  9993
2 65863  53.1584 197.0345 0001345  99.2652 315.9914 15.39552498  5009
STARLINK-35471          
1 65864U 25223L   25300.14688299  .00066242  00000+0  11877-2 0  9995
2 65864  53.1583 197.0167 0000973  91.0857 269.0264 15.49339530  3729
