CCSDS_OMM_VERS = 2.0
CREATION_DATE  = 
ORIGINATOR     = 

OBJECT_NAME    = CZ-2D R/B
OBJECT_ID      = 2025-222C
CENTER_NAME    = EARTH
REF_FRAME      = TEME
TIME_SYSTEM    = UTC
MEAN_ELEMENT_THEORY = SGP/SGP4

EPOCH          = 2025-10-26T22:35:28.663008
MEAN_MOTION    = 14.99320791
ECCENTRICITY   = .0056576
INCLINATION    = 34.9022
RA_OF_ASC_NODE = 219.7421
ARG_OF_PERICENTER = 215.4886
MEAN_ANOMALY   = 144.2048

EPHEMERIS_TYPE = 0
CLASSIFICATION_TYPE = U
NORAD_CAT_ID   = 65853
ELEMENT_SET_NO = 999
REV_AT_EPOCH   = 418
BSTAR          = .22077488E-3
MEAN_MOTION_DOT = .2821E-4
MEAN_MOTION_DDOT = 0

CCSDS_OMM_VERS = 2.0
CREATION_DATE  = 
ORIGINATOR     = 

OBJECT_NAME    = STARLINK-35208
OBJECT_ID      = 2025-223A
CENTER_NAME    = EARTH
REF_FRAME      = TEME
TIME_SYSTEM    = UTC
MEAN_ELEMENT_THEORY = SGP/SGP4

EPOCH          = 2025-10-27T04:00:01.998720
MEAN_MOTION    = 15.39544889
ECCENTRICITY   = .0001254
INCLINATION    = 53.1589
RA_OF_ASC_NODE = 197.1386
ARG_OF_PERICENTER = 95.1238
MEAN_ANOMALY   = 268.6053

EPHEMERIS_TYPE = 0
CLASSIFICATION_TYPE = U
NORAD_CAT_ID   = 65854
ELEMENT_SET_NO = 999
REV_AT_EPOCH   = 500
BSTAR          = .25198E-2
MEAN_MOTION_DOT = .101491E-2
MEAN_MOTION_DDOT = 0

CCSDS_OMM_VERS = 2.0
CREATION_DATE  = 
ORIGINATOR     = 

OBJECT_NAME    = STARLINK-35200
OBJECT_ID      = 2025-223B
CENTER_NAME    = EARTH
REF_FRAME      = TEME
TIME_SYSTEM    = UTC
MEAN_ELEMENT_THEORY = SGP/SGP4

EPOCH          = 2025-10-27T03:35:57.884928
MEAN_MOTION    = 15.49337076
ECCENTRICITY   = .0000934
INCLINATION    = 53.1591
RA_OF_ASC_NODE = 197.0387
ARG_OF_PERICENTER = 99.2468
MEAN_ANOMALY   = 260.8646

EPHEMERIS_TYPE = 0
CLASSIFICATION_TYPE = U
NORAD_CAT_ID   = 65855
ELEMENT_SET_NO = 999
REV_AT_EPOCH   = 372
BSTAR          = .14335E-2
MEAN_MOTION_DOT = .80178E-3
MEAN_MOTION_DDOT = 0

CCSDS_OMM_VERS = 2.0
CREATION_DATE  = 
ORIGINATOR     = 

OBJECT_NAME    = STARLINK-35459
OBJECT_ID      = 2025-223C
CENTER_NAME    = EARTH
REF_FRAME      = TEME
TIME_SYSTEM    = UTC
MEAN_ELEMENT_THEORY = SGP/SGP4

EPOCH          = 2025-10-27T04:00:01.998720
MEAN_MOTION    = 15.42447590
ECCENTRICITY   = .0001037
INCLINATION    = 53.1590
RA_OF_ASC_NODE = 196.9914
ARG_OF_PERICENTER = 114.4824
MEAN_ANOMALY   = 322.9520

EPHEMERIS_TYPE = 0
CLASSIFICATION_TYPE = U
NORAD_CAT_ID   = 65856
ELEMENT_SET_NO = 999
REV_AT_EPOCH   = 500
BSTAR          = -.4044E-1
MEAN_MOTION_DOT = -.1595472E-1
MEAN_MOTION_DDOT = 0

CCSDS_OMM_VERS = 2.0
CREATION_DATE  = 
ORIGINATOR     = 

OBJECT_NAME    = STARLINK-35489
OBJECT_ID      = 2025-223D
CENTER_NAME    = EARTH
REF_FRAME      = TEME
TIME_SYSTEM    = UTC
MEAN_ELEMENT_THEORY = SGP/SGP4

EPOCH          = 2025-10-27T03:34:58.516896
MEAN_MOTION    = 15.49340025
ECCENTRICITY   = .000096
INCLINATION    = 53.1590
RA_OF_ASC_NODE = 197.0339
ARG_OF_PERICENTER = 101.6174
MEAN_ANOMALY   = 258.4942

EPHEMERIS_TYPE = 0
CLASSIFICATION_TYPE = U
NORAD_CAT_ID   = 65857
ELEMENT_SET_NO = 999
REV_AT_EPOCH   = 372
BSTAR          = .14822E-2
MEAN_MOTION_DOT = .82956E-3
MEAN_MOTION_DDOT = 0

CCSDS_OMM_VERS = 2.0
CREATION_DATE  = 
ORIGINATOR     = 

OBJECT_NAME    = STARLINK-35199
OBJECT_ID      = 2025-223E
CENTER_NAME    = EARTH
REF_FRAME      = TEME
TIME_SYSTEM    = UTC
MEAN_ELEMENT_THEORY = SGP/SGP4

EPOCH          = 2025-10-27T03:34:31.412352
MEAN_MOTION    = 15.49128155
ECCENTRICITY   = .000123
INCLINATION    = 53.1590
RA_OF_ASC_NODE = 197.0319
ARG_OF_PERICENTER = 64.1809
MEAN_ANOMALY   = 295.9327

EPHEMERIS_TYPE = 0
CLASSIFICATION_TYPE = U
NORAD_CAT_ID   = 65858
ELEMENT_SET_NO = 999
REV_AT_EPOCH   = 372
BSTAR          = -.12908E-2
MEAN_MOTION_DOT = -.71133E-3
MEAN_MOTION_DDOT = 0

CCSDS_OMM_VERS = 2.0
CREATION_DATE  = 
ORIGINATOR     = 

OBJECT_NAME    = STARLINK-35408
OBJECT_ID      = 2025-223F
CENTER_NAME    = EARTH
REF_FRAME      = TEME
TIME_SYSTEM    = UTC
MEAN_ELEMENT_THEORY = SGP/SGP4

EPOCH          = 2025-10-27T04:00:01.998720
MEAN_MOTION    = 15.39555520
ECCENTRICITY   = .0001435
INCLINATION    = 53.1587
RA_OF_ASC_NODE = 197.0867
ARG_OF_PERICENTER = 94.7523
MEAN_ANOMALY   = 294.7274

EPHEMERIS_TYPE = 0
CLASSIFICATION_TYPE = U
NORAD_CAT_ID   = 65859
ELEMENT_SET_NO = 999
REV_AT_EPOCH   = 500
BSTAR          = .21408E-2
MEAN_MOTION_DOT = .86018E-3
MEAN_MOTION_DDOT = 0

CCSDS_OMM_VERS = 2.0
CREATION_DATE  = 
ORIGINATOR     = 

OBJECT_NAME    = STARLINK-35303
OBJECT_ID      = 2025-223G
CENTER_NAME    = EARTH
REF_FRAME      = TEME
TIME_SYSTEM    = UTC
MEAN_ELEMENT_THEORY = SGP/SGP4

EPOCH          = 2025-10-27T04:00:01.998720
MEAN_MOTION    = 15.44670895
ECCENTRICITY   = .0000885
INCLINATION    = 53.1590
RA_OF_ASC_NODE = 196.9544
ARG_OF_PERICENTER = 90.9121
MEAN_ANOMALY   = 5.5249

EPHEMERIS_TYPE = 0
CLASSIFICATION_TYPE = U
NORAD_CAT_ID   = 65860
ELEMENT_SET_NO = 999
REV_AT_EPOCH   = 500
BSTAR          = -.47382E-1
MEAN_MOTION_DOT = -.2001453E-1
MEAN_MOTION_DDOT = 0

CCSDS_OMM_VERS = 2.0
CREATION_DATE  = 
ORIGINATOR     = 

OBJECT_NAME    = STARLINK-35258
OBJECT_ID      = 2025-223H
CENTER_NAME    = EARTH
REF_FRAME      = TEME
TIME_SYSTEM    = UTC
MEAN_ELEMENT_THEORY = SGP/SGP4

EPOCH          = 2025-10-27T03:33:58.990752
MEAN_MOTION    = 15.49345939
ECCENTRICITY   = .0000094
INCLINATION    = 53.1586
RA_OF_ASC_NODE = 197.0288
ARG_OF_PERICENTER = 77.0565
MEAN_ANOMALY   = 283.0455

EPHEMERIS_TYPE = 0
CLASSIFICATION_TYPE = U
NORAD_CAT_ID   = 65861
ELEMENT_SET_NO = 999
REV_AT_EPOCH   = 372
BSTAR          = .16712E-2
MEAN_MOTION_DOT = .93743E-3
MEAN_MOTION_DDOT = 0

CCSDS_OMM_VERS = 2.0
CREATION_DATE  = 
ORIGINATOR     = 

OBJECT_NAME    = STARLINK-35386
OBJECT_ID      = 2025-223J
CENTER_NAME    = EARTH
REF_FRAME      = TEME
TIME_SYSTEM    = UTC
MEAN_ELEMENT_THEORY = SGP/SGP4

EPOCH          = 2025-10-27T03:32:00.193344
MEAN_MOTION    = 15.49366441
ECCENTRICITY   = .000105
INCLINATION    = 53.1594
RA_OF_ASC_NODE = 197.0193
ARG_OF_PERICENTER = 99.5807
MEAN_ANOMALY   = 260.5321

EPHEMERIS_TYPE = 0
CLASSIFICATION_TYPE = U
NORAD_CAT_ID   = 65862
ELEMENT_SET_NO = 999
REV_AT_EPOCH   = 372
BSTAR          = .11633E-2
MEAN_MOTION_DOT = .64921E-3
MEAN_MOTION_DDOT = 0

CCSDS_OMM_VERS = 2.0
CREATION_DATE  = 
ORIGINATOR     = 

OBJECT_NAME    = STARLINK-35469
OBJECT_ID      = 2025-223K
CENTER_NAME    = EARTH
REF_FRAME      = TEME
TIME_SYSTEM    = UTC
MEAN_ELEMENT_THEORY = SGP/SGP4

EPOCH          = 2025-10-27T04:00:01.998720
MEAN_MOTION    = 15.39552498
ECCENTRICITY   = .0001345
INCLINATION    = 53.1584
RA_OF_ASC_NODE = 197.0345
ARG_OF_PERICENTER = 99.2652
MEAN_ANOMALY   = 315.9914

EPHEMERIS_TYPE = 0
CLASSIFICATION_TYPE = U
NORAD_CAT_ID   = 65863
ELEMENT_SET_NO = 999
REV_AT_EPOCH   = 500
BSTAR          = .24126E-2
MEAN_MOTION_DOT = .97122E-3
MEAN_MOTION_DDOT = 0

CCSDS_OMM_VERS = 2.0
CREATION_DATE  = 
ORIGINATOR     = 

OBJECT_NAME    = STARLINK-35471
OBJECT_ID      = 2025-223L
CENTER_NAME    = EARTH
REF_FRAME      = TEME
TIME_SYSTEM    = UTC
MEAN_ELEMENT_THEORY = SGP/SGP4

EPOCH          = 2025-10-27T03:31:30.690336
MEAN_MOTION    = 15.49339530
ECCENTRICITY   = .0000973
INCLINATION    = 53.1583
RA_OF_ASC_NODE = 197.0167
ARG_OF_PERICENTER = 91.0857
MEAN_ANOMALY   = 269.0264

EPHEMERIS_TYPE = 0
CLASSIFICATION_TYPE = U
NORAD_CAT_ID   = 65864
ELEMENT_SET_NO = 999
REV_AT_EPOCH   = 372
BSTAR          = .11877E-2
MEAN_MOTION_DOT = .66242E-3
MEAN_MOTION_DDOT = 0

